NORAD_CAT_ID,OBJECT_NAME,OBJECT_TYPE,EPOCH,MEAN_MOTION,ECCENTRICITY,INCLINATION,RA_OF_ASC_NODE,ARG_OF_PERICENTER,MEAN_ANOMALY,BSTAR,MEAN_MOTION_DOT,MEAN_MOTION_DDOT,TLE_LINE0,TLE_LINE1,TLE_LINE2,SEMIMAJOR_AXIS,PERIOD,APOGEE,PERIGEE,DECAYED
52542.0,STARLINK-3937,PAYLOAD,2023-10-05 22:02:29,15.08843183,0.0001478,53.2154,145.502,100.4544,259.6615,-3.5467e-05,-8.52e-06,0.0,0 STARLINK-3937,1 52542U 22051K   23278.91839851 -.00000852  00000-0 -35467-4 0  9990,2 52542  53.2154 145.5020 0001478 100.4544 259.6615 15.08843183 77790,6917.871,95.437,540.758,538.713,0.0
52542.0,STARLINK-3937,PAYLOAD,2023-10-06 21:53:18,15.08824717,0.0001448,53.2153,141.0428,95.9956,264.1201,0.001283,0.00020181,0.0,0 STARLINK-3937,1 52542U 22051K   23279.91201694  .00020181  00000-0  12830-2 0  9991,2 52542  53.2153 141.0428 0001448  95.9956 264.1201 15.08824717 77945,6917.927,95.439,540.794,538.79,0.0
52542.0,STARLINK-3937,PAYLOAD,2023-10-07 13:47:09,15.08840738,0.0001398,53.2153,138.0694,98.494,261.621,0.000687,0.00010663,0.0,0 STARLINK-3937,1 52542U 22051K   23280.57441779  .00010663  00000-0  68700-3 0  9997,2 52542  53.2153 138.0694 0001398  98.4940 261.6210 15.08840738 77977,6917.878,95.438,540.71,538.776,0.0
52542.0,STARLINK-3937,PAYLOAD,2023-10-07 20:08:42,15.08846399,0.0001338,53.2157,136.8795,93.0059,267.1086,0.0010845,0.00017017,0.0,0 STARLINK-3937,1 52542U 22051K   23280.83937726  .00017017  00000-0  10845-2 0  9994,2 52542  53.2157 136.8795 0001338  93.0059 267.1086 15.08846399 78089,6917.861,95.437,540.651,538.8,0.0
52542.0,STARLINK-3937,PAYLOAD,2023-10-07 21:44:05,15.08852146,0.0001379,53.2154,136.5826,98.4843,261.6306,0.00084069,0.00013121,0.0,0 STARLINK-3937,1 52542U 22051K   23280.90561554  .00013121  00000-0  84069-3 0  9996,2 52542  53.2154 136.5826 0001379  98.4843 261.6306 15.08852146 78028,6917.843,95.437,540.662,538.754,0.0
52542.0,STARLINK-3937,PAYLOAD,2023-10-08 07:16:23,15.08850405,0.0001412,53.2165,134.7979,89.2967,270.8187,0.00048731,7.478e-05,0.0,0 STARLINK-3937,1 52542U 22051K   23281.30305500  .00007478  00000-0  48731-3 0  9992,2 52542  53.2165 134.7979 0001412  89.2967 270.8187 15.08850405 78151,6917.849,95.437,540.69,538.737,0.0
52542.0,STARLINK-3937,PAYLOAD,2023-10-08 13:37:56,15.08852846,0.0001448,53.2162,133.6112,89.277,270.8388,0.00018398,2.642e-05,0.0,0 STARLINK-3937,1 52542U 22051K   23281.56801384  .00002642  00000-0  18398-3 0  9995,2 52542  53.2162 133.6112 0001448  89.2770 270.8388 15.08852846 78127,6917.841,95.437,540.708,538.704,0.0
52542.0,STARLINK-3937,PAYLOAD,2023-10-08 18:24:05,15.08844039,0.0001467,53.2153,132.7175,92.9921,267.1239,8.6126e-05,1.083e-05,0.0,0 STARLINK-3937,1 52542U 22051K   23281.76673479  .00001083  00000-0  86126-4 0  9992,2 52542  53.2153 132.7175 0001467  92.9921 267.1239 15.08844039 78226,6917.868,95.437,540.748,538.718,0.0
52542.0,STARLINK-3937,PAYLOAD,2023-10-08 21:34:52,15.08849633,0.0001495,53.2156,132.1224,88.7492,271.3671,0.00032032,4.815e-05,0.0,0 STARLINK-3937,1 52542U 22051K   23281.89921391  .00004815  00000-0  32032-3 0  9997,2 52542  53.2156 132.1224 0001495  88.7492 271.3671 15.08849633 78171,6917.851,95.437,540.75,538.682,0.0
52542.0,STARLINK-3937,PAYLOAD,2023-10-09 13:28:43,15.08844777,0.0002466,53.2156,129.1462,81.7086,278.4186,0.00022861,3.352e-05,0.0,0 STARLINK-3937,1 52542U 22051K   23282.56161686  .00003352  00000-0  22861-3 0  9999,2 52542  53.2156 129.1462 0002466  81.7086 278.4186 15.08844777 78276,6917.866,95.437,541.437,538.025,0.0
52542.0,STARLINK-3937,PAYLOAD,2023-10-09 21:25:39,15.0884001,0.0001637,53.2156,127.6622,79.9938,280.1239,8.3682e-05,1.044e-05,0.0,0 STARLINK-3937,1 52542U 22051K   23282.89281725  .00001044  00000-0  83682-4 0  9997,2 52542  53.2156 127.6622 0001637  79.9938 280.1239 15.08840010 78399,6917.88,95.438,540.878,538.613,0.0
52542.0,STARLINK-3937,PAYLOAD,2023-10-10 13:19:30,15.08847207,0.00017,53.2151,124.689,82.2339,277.8846,0.00031111,4.668e-05,0.0,0 STARLINK-3937,1 52542U 22051K   23283.55521577  .00004668  00000-0  31111-3 0  9997,2 52542  53.2151 124.6890 0001700  82.2339 277.8846 15.08847207 78427,6917.858,95.437,540.899,538.547,0.0
52542.0,STARLINK-3937,PAYLOAD,2023-10-10 19:41:03,15.08852126,0.0001562,53.2147,123.4989,84.1208,275.9963,0.00058709,9.071e-05,0.0,0 STARLINK-3937,1 52542U 22051K   23283.82017435  .00009071  00000-0  58709-3 0  9995,2 52542  53.2147 123.4989 0001562  84.1208 275.9963 15.08852126 78469,6917.843,95.437,540.789,538.628,0.0
52542.0,STARLINK-3937,PAYLOAD,2023-10-10 22:51:49,15.08855776,0.0001567,53.215,122.9039,83.7533,276.3637,0.00068238,0.00010593,0.0,0 STARLINK-3937,1 52542U 22051K   23283.95265312  .00010593  00000-0  68238-3 0  9997,2 52542  53.2150 122.9039 0001567  83.7533 276.3637 15.08855776 78551,6917.832,95.437,540.781,538.613,0.0
52542.0,STARLINK-3937,PAYLOAD,2023-10-11 13:10:17,15.08846253,0.0001946,53.2149,120.2282,83.7498,276.3716,0.00030142,4.513e-05,0.0,0 STARLINK-3937,1 52542U 22051K   23284.54881539  .00004513  00000-0  30142-3 0  9996,2 52542  53.2149 120.2282 0001946  83.7498 276.3716 15.08846253 78649,6917.861,95.437,541.072,538.38,0.0
52542.0,STARLINK-3937,PAYLOAD,2023-10-12 13:01:04,15.08842569,0.0001318,53.2141,115.7666,93.2421,266.8722,0.00018176,2.606e-05,0.0,0 STARLINK-3937,1 52542U 22051K   23285.54241625  .00002606  00000-0  18176-3 0  9997,2 52542  53.2141 115.7666 0001318  93.2421 266.8722 15.08842569 78727,6917.873,95.437,540.649,538.826,0.0
52542.0,STARLINK-3937,PAYLOAD,2023-10-12 19:22:37,15.08844155,0.0001357,53.2142,114.5779,82.5823,277.5323,0.00016519,2.342e-05,0.0,0 STARLINK-3937,1 52542U 22051K   23285.80737628  .00002342  00000-0  16519-3 0  9995,2 52542  53.2142 114.5779 0001357  82.5823 277.5323 15.08844155 78831,6917.868,95.437,540.671,538.794,0.0
52542.0,STARLINK-3937,PAYLOAD,2023-10-13 19:13:24,15.08845806,0.0001279,53.2148,110.1162,84.978,275.1358,0.00022524,3.299e-05,0.0,0 STARLINK-3937,1 52542U 22051K   23286.80097580  .00003299  00000-0  22524-3 0  9997,2 52542  53.2148 110.1162 0001279  84.9780 275.1358 15.08845806 78911,6917.863,95.437,540.612,538.843,0.0
52542.0,STARLINK-3937,PAYLOAD,2023-10-14 04:45:43,15.08845558,0.0001297,53.2148,108.3316,84.7444,275.3696,0.00017037,2.425e-05,0.0,0 STARLINK-3937,1 52542U 22051K   23287.19841461  .00002425  00000-0  17037-3 0  9998,2 52542  53.2148 108.3316 0001297  84.7444 275.3696 15.08845558 79042,6917.863,95.437,540.626,538.831,0.0
52542.0,STARLINK-3937,PAYLOAD,2023-10-14 12:42:39,15.08842579,0.0001936,53.215,106.845,82.8822,277.239,0.00014115,1.959e-05,0.0,0 STARLINK-3937,1 52542U 22051K   23287.52961814  .00001959  00000-0  14115-3 0  9995,2 52542  53.2150 106.8450 0001936  82.8822 277.2390 15.08842579 79026,6917.873,95.437,541.077,538.398,0.0
52542.0,STARLINK-3937,PAYLOAD,2023-10-14 19:04:11,15.08839886,0.0001366,53.215,105.6554,86.9873,273.1275,8.0433e-05,9.92e-06,0.0,0 STARLINK-3937,1 52542U 22051K   23287.79457810  .00000992  00000-0  80433-4 0  9993,2 52542  53.2150 105.6554 0001366  86.9873 273.1275 15.08839886 79132,6917.881,95.438,540.691,538.801,0.0
52542.0,STARLINK-3937,PAYLOAD,2023-10-15 12:33:26,15.08838874,0.0001357,53.2151,102.3847,88.3432,271.7716,1.0885e-05,-1.15e-06,0.0,0 STARLINK-3937,1 52542U 22051K   23288.52321950 -.00000115  00000-0  10885-4 0  9992,2 52542  53.2151 102.3847 0001357  88.3432 271.7716 15.08838874 79173,6917.884,95.438,540.688,538.81,0.0
52542.0,STARLINK-3937,PAYLOAD,2023-10-15 18:54:58,15.08845211,0.000134,53.2152,101.1954,91.915,268.1995,0.00011443,1.534e-05,0.0,0 STARLINK-3937,1 52542U 22051K   23288.78817651  .00001534  00000-0  11443-3 0  9993,2 52542  53.2152 101.1954 0001340  91.9150 268.1995 15.08845211 79216,6917.864,95.437,540.656,538.802,0.0
52542.0,STARLINK-3937,PAYLOAD,2023-10-15 22:05:44,15.08846475,0.0001376,53.2151,100.6004,91.1139,269.001,0.00019032,2.743e-05,0.0,0 STARLINK-3937,1 52542U 22051K   23288.92065598  .00002743  00000-0  19032-3 0  9999,2 52542  53.2151 100.6004 0001376  91.1139 269.0010 15.08846475 79304,6917.861,95.437,540.677,538.774,0.0
52542.0,STARLINK-3937,PAYLOAD,2023-10-16 17:10:22,15.088386,0.0001386,53.2158,97.0315,92.4274,267.6877,9.5074e-05,1.225e-05,0.0,0 STARLINK-3937,1 52542U 22051K   23289.71554102  .00001225  00000-0  95074-4 0  9996,2 52542  53.2158  97.0315 0001386  92.4274 267.6877 15.08838600 79429,6917.885,95.438,540.708,538.791,0.0
52542.0,STARLINK-3937,PAYLOAD,2023-10-17 10:39:37,15.08839984,0.0001523,53.2167,93.7597,87.2405,272.8762,0.00010487,1.381e-05,0.0,0 STARLINK-3937,1 52542U 22051K   23290.44418182  .00001381  00000-0  10487-3 0  9992,2 52542  53.2167  93.7597 0001523  87.2405 272.8762 15.08839984 79466,6917.88,95.438,540.799,538.692,0.0
52542.0,STARLINK-3937,PAYLOAD,2023-10-17 17:01:08,15.08858722,0.0001798,53.2163,92.5684,101.9616,258.1578,0.00031178,4.68e-05,0.0,0 STARLINK-3937,1 52542U 22051K   23290.70913111  .00004680  00000-0  31178-3 0  9998,2 52542  53.2163  92.5684 0001798 101.9616 258.1578 15.08858722 79506,6917.823,95.436,540.932,538.444,0.0
52542.0,STARLINK-3937,PAYLOAD,2023-10-18 10:30:24,15.08835308,0.0001252,53.2168,89.2988,115.6097,244.5025,4.5777e-05,4.41e-06,0.0,0 STARLINK-3937,1 52542U 22051K   23291.43778255  .00000441  00000-0  45777-4 0  9999,2 52542  53.2168  89.2988 0001252 115.6097 244.5025 15.08835308 79681,6917.895,95.438,540.626,538.894,0.0
52542.0,STARLINK-3937,PAYLOAD,2023-10-18 16:51:56,15.08844413,0.0001367,53.216,88.1097,94.8813,265.2335,0.00014392,2.004e-05,0.0,0 STARLINK-3937,1 52542U 22051K   23291.70273958  .00002004  00000-0  14392-3 0  9994,2 52542  53.2160  88.1097 0001367  94.8813 265.2335 15.08844413 79729,6917.867,95.437,540.678,538.786,0.0
52542.0,STARLINK-3937,PAYLOAD,2023-10-19 10:21:11,15.08847685,0.0001448,53.2161,84.8396,90.0331,270.0827,0.00015428,2.169e-05,0.0,0 STARLINK-3937,1 52542U 22051K   23292.43137788  .00002169  00000-0  15428-3 0  9998,2 52542  53.2161  84.8396 0001448  90.0331 270.0827 15.08847685 79766,6917.857,95.437,540.724,538.72,0.0
